{"type": "FeatureCollection", "features": [ {"type": "Feature", "properties": {"norad_id": 35959, "name": "COSMOS 2251 DEB", "group": "cosmos-2251-debris", "lat": 19.14519110727495, "lon": -27.059171710804712, "alt_km": 764.6957196847361, "timestamp": "2025-12-04T10:51:50.502930+00:00", "meta": {"OBJECT_NAME": "COSMOS 2251 DEB", "OBJECT_ID": "1993-036AUZ", "EPOCH": "2025-12-03T09:39:32.961312", "MEAN_MOTION": 14.34124856, "ECCENTRICITY": 0.00212071, "INCLINATION": 74.0321, "RA_OF_ASC_NODE": 329.1579, "ARG_OF_PERICENTER": 52.6115, "MEAN_ANOMALY": 307.6963, "EPHEMERIS_TYPE": 0, "CLASSIFICATION_TYPE": "U", "NORAD_CAT_ID": 35959, "ELEMENT_SET_NO": 999, "REV_AT_EPOCH": 84794, "BSTAR": 0.00017921451, "MEAN_MOTION_DOT": 4.77e-06, "MEAN_MOTION_DDOT": 0}, "tle": {"line1": "1 35959U 93036AUZ 25337.40246483  .00000477  00000+0  17921-3 0  9993", "line2": "2 35959  74.0321 329.1579 0021207  52.6115 307.6963 14.34124856847942"}}, "geometry": {"type": "Point", "coordinates": [-27.059171710804712, 19.14519110727495]}}, {"type": "Feature", "properties": {"norad_id": 35961, "name": "COSMOS 2251 DEB", "group": "cosmos-2251-debris", "lat": 73.58569059036304, "lon": -63.06947367610584, "alt_km": 811.9681885873715, "timestamp": "2025-12-04T10:51:50.502940+00:00", "meta": {"OBJECT_NAME": "COSMOS 2251 DEB", "OBJECT_ID": "1993-036AVB", "EPOCH": "2025-11-29T09:08:47.173056", "MEAN_MOTION": 14.05319505, "ECCENTRICITY": 0.01924432, "INCLINATION": 73.9254, "RA_OF_ASC_NODE": 227.671, "ARG_OF_PERICENTER": 163.9834, "MEAN_ANOMALY": 196.7506, "EPHEMERIS_TYPE": 0, "CLASSIFICATION_TYPE": "U", "NORAD_CAT_ID": 35961, "ELEMENT_SET_NO": 999, "REV_AT_EPOCH": 62494, "BSTAR": 0.00062484461, "MEAN_MOTION_DOT": 1.171e-05, "MEAN_MOTION_DDOT": 0}, "tle": {"line1": "1 35961U 93036AVB 25333.38110154  .00001171  00000+0  62484-3 0  9990", "line2": "2 35961  73.9254 227.6710 0192443 163.9834 196.7506 14.05319505624940"}}, "geometry": {"type": "Point", "coordinates": [-63.06947367610584, 73.58569059036304]}}, {"type": "Feature", "properties": {"norad_id": 35979, "name": "COSMOS 2251 DEB", "group": "cosmos-2251-debris", "lat": 68.57216095291103, "lon": -58.469993062217604, "alt_km": 611.5471646162005, "timestamp": "2025-12-04T10:51:50.502950+00:00", "meta": {"OBJECT_NAME": "COSMOS 2251 DEB", "OBJECT_ID": "1993-036AVV", "EPOCH": "2025-12-04T00:49:14.760768", "MEAN_MOTION": 14.74451194, "ECCENTRICITY": 0.0058683, "INCLINATION": 74.011, "RA_OF_ASC_NODE": 255.4111, "ARG_OF_PERICENTER": 29.5884, "MEAN_ANOMALY": 345.1731, "EPHEMERIS_TYPE": 0, "CLASSIFICATION_TYPE": "U", "NORAD_CAT_ID": 35979, "ELEMENT_SET_NO": 999, "REV_AT_EPOCH": 88505, "BSTAR": 0.0021469, "MEAN_MOTION_DOT": 0.0001466, "MEAN_MOTION_DDOT": 0}, "tle": {"line1": "1 35979U 93036AVV 25338.03419862  .00014660  00000+0  21469-2 0  9998", "line2": "2 35979  74.0110 255.4111 0058683  29.5884 345.1731 14.74451194885053"}}, "geometry": {"type": "Point", "coordinates": [-58.469993062217604, 68.57216095291103]}}, {"type": "Feature", "properties": {"norad_id": 35980, "name": "COSMOS 2251 DEB", "group": "cosmos-2251-debris", "lat": 48.630000741657746, "lon": 157.7280287195827, "alt_km": 719.2702473470417, "timestamp": "2025-12-04T10:51:50.502961+00:00", "meta": {"OBJECT_NAME": "COSMOS 2251 DEB", "OBJECT_ID": "1993-036AVW", "EPOCH": "2025-12-02T19:08:08.015136", "MEAN_MOTION": 14.59062146, "ECCENTRICITY": 0.00537712, "INCLINATION": 73.91, "RA_OF_ASC_NODE": 141.7735, "ARG_OF_PERICENTER": 277.5645, "MEAN_ANOMALY": 81.9413, "EPHEMERIS_TYPE": 0, "CLASSIFICATION_TYPE": "U", "NORAD_CAT_ID": 35980, "ELEMENT_SET_NO": 999, "REV_AT_EPOCH": 61341, "BSTAR": 0.002036555, "MEAN_MOTION_DOT": 9.752e-05, "MEAN_MOTION_DDOT": 0}, "tle": {"line1": "1 35980U 93036AVW 25336.79731499  .00009752  00000+0  20366-2 0  9995", "line2": "2 35980  73.9100 141.7735 0053771 277.5645  81.9413 14.59062146613413"}}, "geometry": {"type": "Point", "coordinates": [157.7280287195827, 48.630000741657746]}}, {"type": "Feature", "properties": {"norad_id": 35982, "name": "COSMOS 2251 DEB", "group": "cosmos-2251-debris", "lat": -48.218559514746396, "lon": -158.5511108657793, "alt_km": 733.2489669235065, "timestamp": "2025-12-04T10:51:50.502972+00:00", "meta": {"OBJECT_NAME": "COSMOS 2251 DEB", "OBJECT_ID": "1993-036AVY", "EPOCH": "2025-12-03T19:02:35.342304", "MEAN_MOTION": 14.6267509, "ECCENTRICITY": 0.0064053, "INCLINATION": 74.0591, "RA_OF_ASC_NODE": 4.0543, "ARG_OF_PERICENTER": 73.1235, "MEAN_ANOMALY": 287.6943, "EPHEMERIS_TYPE": 0, "CLASSIFICATION_TYPE": "U", "NORAD_CAT_ID": 35982, "ELEMENT_SET_NO": 999, "REV_AT_EPOCH": 86035, "BSTAR": 0.00091326, "MEAN_MOTION_DOT": 4.759e-05, "MEAN_MOTION_DDOT": 0}, "tle": {"line1": "1 35982U 93036AVY 25337.79346461  .00004759  00000+0  91326-3 0  9996", "line2": "2 35982  74.0591   4.0543 0064053  73.1235 287.6943 14.62675090860351"}}, "geometry": {"type": "Point", "coordinates": [-158.5511108657793, -48.218559514746396]}}, {"type": "Feature", "properties": {"norad_id": 35987, "name": "COSMOS 2251 DEB", "group": "cosmos-2251-debris", "lat": 73.89953750180007, "lon": 65.84795723267152, "alt_km": 710.7227001102046, "timestamp": "2025-12-04T10:51:50.502982+00:00", "meta": {"OBJECT_NAME": "COSMOS 2251 DEB", "OBJECT_ID": "1993-036AWD", "EPOCH": "2025-12-01T10:54:45.006048", "MEAN_MOTION": 14.43015331, "ECCENTRICITY": 0.00459843, "INCLINATION": 73.9994, "RA_OF_ASC_NODE": 347.6475, "ARG_OF_PERICENTER": 116.8368, "MEAN_ANOMALY": 243.7501, "EPHEMERIS_TYPE": 0, "CLASSIFICATION_TYPE": "U", "NORAD_CAT_ID": 35987, "ELEMENT_SET_NO": 999, "REV_AT_EPOCH": 60902, "BSTAR": 0.00096989757, "MEAN_MOTION_DOT": 3.265e-05, "MEAN_MOTION_DDOT": 0}, "tle": {"line1": "1 35987U 93036AWD 25335.45468757  .00003265  00000+0  96990-3 0  9998", "line2": "2 35987  73.9994 347.6475 0045984 116.8368 243.7501 14.43015331609028"}}, "geometry": {"type": "Point", "coordinates": [65.84795723267152, 73.89953750180007]}}, {"type": "Feature", "properties": {"norad_id": 35989, "name": "COSMOS 2251 DEB", "group": "cosmos-2251-debris", "lat": -45.77973424828079, "lon": -78.02819602011904, "alt_km": 769.6466100828502, "timestamp": "2025-12-04T10:51:50.502992+00:00", "meta": {"OBJECT_NAME": "COSMOS 2251 DEB", "OBJECT_ID": "1993-036AWF", "EPOCH": "2025-11-27T07:00:06.233184", "MEAN_MOTION": 14.37066498, "ECCENTRICITY": 0.00214096, "INCLINATION": 74.0374, "RA_OF_ASC_NODE": 312.2392, "ARG_OF_PERICENTER": 38.1471, "MEAN_ANOMALY": 322.1192, "EPHEMERIS_TYPE": 0, "CLASSIFICATION_TYPE": "U", "NORAD_CAT_ID": 35989, "ELEMENT_SET_NO": 999, "REV_AT_EPOCH": 86957, "BSTAR": 0.00024367588, "MEAN_MOTION_DOT": 6.99e-06, "MEAN_MOTION_DDOT": 0}, "tle": {"line1": "1 35989U 93036AWF 25331.29173881  .00000699  00000+0  24368-3 0  9997", "line2": "2 35989  74.0374 312.2392 0021409  38.1471 322.1192 14.37066498869576"}}, "geometry": {"type": "Point", "coordinates": [-78.02819602011904, -45.77973424828079]}}, {"type": "Feature", "properties": {"norad_id": 35993, "name": "COSMOS 2251 DEB", "group": "cosmos-2251-debris", "lat": 65.21621835257321, "lon": 27.148620101940867, "alt_km": 676.8577234696559, "timestamp": "2025-12-04T10:51:50.503002+00:00", "meta": {"OBJECT_NAME": "COSMOS 2251 DEB", "OBJECT_ID": "1993-036AWK", "EPOCH": "2025-11-27T19:35:01.348512", "MEAN_MOTION": 14.65130544, "ECCENTRICITY": 0.00298008, "INCLINATION": 74.0156, "RA_OF_ASC_NODE": 1.5524, "ARG_OF_PERICENTER": 195.1174, "MEAN_ANOMALY": 164.9107, "EPHEMERIS_TYPE": 0, "CLASSIFICATION_TYPE": "U", "NORAD_CAT_ID": 35993, "ELEMENT_SET_NO": 999, "REV_AT_EPOCH": 60224, "BSTAR": 0.00071132597, "MEAN_MOTION_DOT": 3.818e-05, "MEAN_MOTION_DDOT": 0}, "tle": {"line1": "1 35993U 93036AWK 25331.81598783  .00003818  00000+0  71133-3 0  9990", "line2": "2 35993  74.0156   1.5524 0029800 195.1174 164.9107 14.65130544602243"}}, "geometry": {"type": "Point", "coordinates": [27.148620101940867, 65.21621835257321]}}, {"type": "Feature", "properties": {"norad_id": 35996, "name": "COSMOS 2251 DEB", "group": "cosmos-2251-debris", "lat": -61.01122874126551, "lon": 89.36172434044624, "alt_km": 536.808592093189, "timestamp": "2025-12-04T10:51:50.503012+00:00", "meta": {"OBJECT_NAME": "COSMOS 2251 DEB", "OBJECT_ID": "1993-036AWN", "EPOCH": "2025-12-02T16:11:16.473408", "MEAN_MOTION": 15.08726823, "ECCENTRICITY": 0.00894127, "INCLINATION": 74.0129, "RA_OF_ASC_NODE": 124.191, "ARG_OF_PERICENTER": 217.4013, "MEAN_ANOMALY": 142.0936, "EPHEMERIS_TYPE": 0, "CLASSIFICATION_TYPE": "U", "NORAD_CAT_ID": 35996, "ELEMENT_SET_NO": 999, "REV_AT_EPOCH": 72174, "BSTAR": 0.0010208525, "MEAN_MOTION_DOT": 0.00017591, "MEAN_MOTION_DDOT": 0}, "tle": {"line1": "1 35996U 93036AWN 25336.67449622  .00017591  00000+0  10209-2 0  9998", "line2": "2 35996  74.0129 124.1910 0089412 217.4013 142.0936 15.08726823721745"}}, "geometry": {"type": "Point", "coordinates": [89.36172434044624, -61.01122874126551]}}, {"type": "Feature", "properties": {"norad_id": 35997, "name": "COSMOS 2251 DEB", "group": "cosmos-2251-debris", "lat": -52.790198795442265, "lon": -179.25497478804414, "alt_km": 718.0083260402735, "timestamp": "2025-12-04T10:51:50.503022+00:00", "meta": {"OBJECT_NAME": "COSMOS 2251 DEB", "OBJECT_ID": "1993-036AWP", "EPOCH": "2025-12-02T07:50:00.553056", "MEAN_MOTION": 14.51236016, "ECCENTRICITY": 0.00159085, "INCLINATION": 74.0439, "RA_OF_ASC_NODE": 206.8774, "ARG_OF_PERICENTER": 283.0639, "MEAN_ANOMALY": 76.8746, "EPHEMERIS_TYPE": 0, "CLASSIFICATION_TYPE": "U", "NORAD_CAT_ID": 35997, "ELEMENT_SET_NO": 999, "REV_AT_EPOCH": 70733, "BSTAR": 0.00076938672, "MEAN_MOTION_DOT": 3.037e-05, "MEAN_MOTION_DDOT": 0}, "tle": {"line1": "1 35997U 93036AWP 25336.32639529  .00003037  00000+0  76939-3 0  9991", "line2": "2 35997  74.0439 206.8774 0015908 283.0639  76.8746 14.51236016707337"}}, "geometry": {"type": "Point", "coordinates": [-179.25497478804414, -52.790198795442265]}}]}